[
    {
        "Altitude(m)": 605470.7772620895,
        "Argument of Periapsis(deg)": 0.0,
        "Eccentricity": 0.0,
        "Inclination(deg)": 60.0,
        "Latitude(deg)": 27.988164793906467,
        "Longitude(deg)": 167.26299369753093,
        "Mean Anomaly(deg)": 147.27270000000001,
        "RAAN(deg)": 105.0,
        "Satellite Name": "Test1 471",
        "Satellite Number": 471,
        "Semi-Major Axis(m)": 6980739.136638005,
        "Time(s)": 0
    },
    {
        "Altitude(m)": 605395.8151362749,
        "Argument of Periapsis(deg)": 0.00010418945913296404,
        "Eccentricity": 0.0,
        "Inclination(deg)": 60.0,
        "Latitude(deg)": 27.473854941140445,
        "Longitude(deg)": 167.61618033794258,
        "Mean Anomaly(deg)": 147.8928061454618,
        "RAAN(deg)": 104.99957995086028,
        "Satellite Name": "Test1 471",
        "Satellite Number": 471,
        "Semi-Major Axis(m)": 6980739.136638005,
        "Time(s)": 10
    }
]